[{"OBJECT_NAME":"STARLINK-35408","OBJECT_ID":"2025-223F","EPOCH":"2026-03-09T21:41:17.998656","MEAN_MOTION":15.30194054,"ECCENTRICITY":0.00010118,"INCLINATION":53.1579,"RA_OF_ASC_NODE":293.5275,"ARG_OF_PERICENTER":72.3043,"MEAN_ANOMALY":287.8069,"EPHEMERIS_TYPE":0,"CLASSIFICATION_TYPE":"U","NORAD_CAT_ID":65859,"ELEMENT_SET_NO":999,"REV_AT_EPOCH":2423,"BSTAR":0.00097361147,"MEAN_MOTION_DOT":0.00028582,"MEAN_MOTION_DDOT":0},{"OBJECT_NAME":"CZ-6A DEB","OBJECT_ID":"2022-151DV","EPOCH":"2026-03-09T19:16:59.107296","MEAN_MOTION":15.22406517,"ECCENTRICITY":0.00445255,"INCLINATION":98.4509,"RA_OF_ASC_NODE":160.1888,"ARG_OF_PERICENTER":355.6495,"MEAN_ANOMALY":4.4345,"EPHEMERIS_TYPE":0,"CLASSIFICATION_TYPE":"U","NORAD_CAT_ID":54397,"ELEMENT_SET_NO":999,"REV_AT_EPOCH":17880,"BSTAR":0.0035436228,"MEAN_MOTION_DOT":0.00084931,"MEAN_MOTION_DDOT":0}]
